{"type":"FeatureCollection","features":[{"type":"Feature","id":0,"geometry":{"type":"Polygon","coordinates":[[[102.66878,4.35828],[102.6679,4.3562],[102.66702,4.35412],[102.66614,4.35204],[102.66526,4.34996],[102.66438,4.34788],[102.6635,4.3458],[102.66262,4.34372],[102.66261,4.34306],[102.66256,4.3408],[102.66251,4.33854],[102.66246,4.33628],[102.66241,4.33402],[102.66236,4.33176],[102.66231,4.3295],[102.66226,4.32724],[102.66221,4.32498],[102.66216,4.32272],[102.66211,4.32046],[102.66206,4.3182],[102.66201,4.31594],[102.66196,4.31368],[102.66191,4.31142],[102.66186,4.30916],[102.66181,4.3069],[102.66176,4.30464],[102.66171,4.30238],[102.66167,4.30012],[102.66162,4.29786],[102.66157,4.2956],[102.66152,4.29334],[102.66147,4.29108],[102.66142,4.28882],[102.66137,4.28656],[102.66132,4.2843],[102.66127,4.28204],[102.66122,4.27978],[102.66117,4.27752],[102.66244,4.27733],[102.66466,4.27699],[102.66689,4.27666],[102.66912,4.27633],[102.67135,4.27599],[102.67356,4.27543],[102.67579,4.2751],[102.67801,4.27476],[102.67979,4.2745],[102.67965,4.27296],[102.67947,4.27116],[102.6793,4.26936],[102.67913,4.26756],[102.67896,4.26576],[102.67879,4.26396],[102.67861,4.26216],[102.67844,4.26036],[102.67827,4.25856],[102.67726,4.25873],[102.67549,4.25904],[102.67371,4.25935],[102.67193,4.25965],[102.67016,4.25996],[102.66838,4.26027],[102.66607,4.26052],[102.66483,4.26088],[102.66306,4.26119],[102.66128,4.26149],[102.65951,4.2618],[102.65773,4.26211],[102.65757,4.2608],[102.65735,4.25901],[102.65713,4.25721],[102.65691,4.25542],[102.65938,4.25365],[102.65978,4.25338],[102.6603,4.25341],[102.66218,4.25451],[102.66249,4.25454],[102.66447,4.25671],[102.66607,4.25577],[102.66611,4.25401],[102.66626,4.25197],[102.67053,4.24999],[102.67091,4.25001],[102.67354,4.25175],[102.67355,4.25301],[102.67627,4.25304],[102.67961,4.25494],[102.68003,4.25508],[102.68294,4.25539],[102.68574,4.25725],[102.68738,4.25831],[102.68829,4.25873],[102.68916,4.25898],[102.69061,4.25884],[102.69188,4.25883],[102.693,4.25944],[102.70107,4.26362],[102.70587,4.2634],[102.70793,4.2623],[102.70874,4.26232],[102.70968,4.26263],[102.71017,4.26267],[102.71107,4.26229],[102.7125,4.26048],[102.71309,4.25961],[102.71435,4.25859],[102.716,4.25721],[102.7175,4.25276],[102.72002,4.24995],[102.7206,4.24945],[102.72092,4.24527],[102.72174,4.24339],[102.72269,4.24146],[102.7245,4.24037],[102.72499,4.24008],[102.72812,4.2367],[102.73288,4.23646],[102.73629,4.23804],[102.73836,4.23902],[102.73881,4.23917],[102.74063,4.23916],[102.74217,4.23862],[102.74326,4.23864],[102.74388,4.2394],[102.74423,4.24114],[102.7446,4.24241],[102.74499,4.24274],[102.74541,4.24295],[102.74652,4.24279],[102.7475,4.24285],[102.74924,4.244],[102.75119,4.2451],[102.75334,4.24518],[102.7539,4.24551],[102.7544,4.24592],[102.75453,4.24851],[102.75454,4.2514],[102.75646,4.25476],[102.75774,4.25784],[102.75878,4.25947],[102.76005,4.26124],[102.76149,4.2608],[102.76263,4.26028],[102.76373,4.25948],[102.76531,4.25979],[102.76598,4.26004],[102.76738,4.26003],[102.77137,4.25891],[102.77518,4.25975],[102.77532,4.26048],[102.77542,4.26243],[102.7786,4.26602],[102.78189,4.26993],[102.78459,4.27366],[102.78874,4.27885],[102.78915,4.27918],[102.79073,4.27968],[102.79133,4.28013],[102.79558,4.28555],[102.79665,4.28656],[102.79832,4.28779],[102.7988,4.28799],[102.79996,4.2879],[102.80107,4.28806],[102.80201,4.28846],[102.80568,4.29107],[102.80789,4.29144],[102.80935,4.29153],[102.81184,4.2921],[102.81396,4.29262],[102.81435,4.29262],[102.81461,4.28995],[102.81391,4.2874],[102.81658,4.2859],[102.81767,4.28506],[102.81942,4.28523],[102.82257,4.28575],[102.82446,4.28626],[102.82672,4.28685],[102.82938,4.28684],[102.83035,4.28513],[102.8312,4.28396],[102.83239,4.28295],[102.83462,4.28155],[102.83648,4.28038],[102.8356,4.27728],[102.83563,4.27596],[102.83399,4.27212],[102.83506,4.27147],[102.83701,4.27049],[102.83849,4.26949],[102.84158,4.26589],[102.84438,4.26298],[102.84695,4.26089],[102.85194,4.25703],[102.85708,4.25475],[102.86272,4.25096],[102.86455,4.25089],[102.86622,4.25059],[102.87041,4.24788],[102.87187,4.24794],[102.87296,4.24904],[102.87472,4.25034],[102.87669,4.25171],[102.87874,4.25299],[102.8816,4.25552],[102.88381,4.25738],[102.88762,4.26006],[102.8888,4.2596],[102.89123,4.25784],[102.89287,4.25664],[102.89428,4.25673],[102.89815,4.25695],[102.90152,4.25965],[102.90196,4.25971],[102.90297,4.25988],[102.90684,4.25941],[102.90703,4.2595],[102.91022,4.26113],[102.91336,4.26186],[102.92012,4.26066],[102.92157,4.26067],[102.92276,4.2653],[102.92471,4.2675],[102.92638,4.26848],[102.92857,4.27312],[102.93002,4.27628],[102.93097,4.27657],[102.93248,4.27701],[102.93263,4.27707],[102.9325,4.27735],[102.93248,4.27754],[102.93246,4.2777],[102.93257,4.27821],[102.93307,4.27896],[102.93316,4.2791],[102.9335,4.27948],[102.93455,4.28061],[102.93484,4.28099],[102.93501,4.28143],[102.93512,4.28185],[102.93539,4.28216],[102.93611,4.28299],[102.93634,4.28356],[102.93667,4.28459],[102.93682,4.2849],[102.93699,4.28513],[102.93752,4.28578],[102.93754,4.2858],[102.93796,4.28617],[102.9383,4.28645],[102.9392,4.28703],[102.93979,4.28749],[102.94084,4.28841],[102.94114,4.28852],[102.9416,4.28856],[102.94196,4.28837],[102.94301,4.28774],[102.94393,4.28742],[102.9453,4.28617],[102.94567,4.28583],[102.94593,4.28566],[102.94664,4.28504],[102.94702,4.28503],[102.94788,4.28503],[102.94958,4.28482],[102.94982,4.28474],[102.95024,4.28459],[102.95061,4.28465],[102.95105,4.28499],[102.95146,4.28524],[102.95223,4.28562],[102.95265,4.28595],[102.95345,4.28674],[102.95347,4.28675],[102.95415,4.28756],[102.95417,4.28758],[102.95495,4.28827],[102.95499,4.28829],[102.95539,4.28882],[102.95562,4.28923],[102.95579,4.28984],[102.95609,4.29066],[102.9567,4.29208],[102.95687,4.29262],[102.95743,4.29331],[102.95783,4.294],[102.95813,4.29486],[102.95832,4.29633],[102.95822,4.297],[102.95815,4.29744],[102.95818,4.29805],[102.95832,4.29853],[102.95912,4.29997],[102.9594,4.30066],[102.9595,4.30162],[102.9594,4.30342],[102.95915,4.30403],[102.95909,4.30462],[102.95915,4.30527],[102.95934,4.30834],[102.95936,4.30866],[102.95981,4.31027],[102.96019,4.31201],[102.96044,4.31307],[102.96099,4.31686],[102.96129,4.31753],[102.96147,4.31793],[102.96152,4.31877],[102.96156,4.31969],[102.96171,4.3199],[102.96173,4.31992],[102.96306,4.32111],[102.96421,4.32207],[102.96423,4.32209],[102.96522,4.3232],[102.96522,4.32322],[102.96529,4.3233],[102.9655,4.32349],[102.96552,4.32351],[102.9656,4.32358],[102.96661,4.32473],[102.96745,4.32554],[102.96748,4.32558],[102.96768,4.32588],[102.96769,4.32592],[102.96777,4.32607],[102.96836,4.32715],[102.96857,4.32755],[102.96865,4.32791],[102.96889,4.32831],[102.96927,4.32866],[102.96935,4.32872],[102.96943,4.32876],[102.97067,4.32962],[102.97124,4.32994],[102.97128,4.32996],[102.97234,4.33056],[102.97339,4.33067],[102.97404,4.3309],[102.97446,4.33115],[102.97532,4.33169],[102.97538,4.33173],[102.97541,4.33177],[102.9761,4.33232],[102.97707,4.33284],[102.97707,4.33286],[102.97734,4.33319],[102.97749,4.33347],[102.97757,4.33399],[102.97758,4.33443],[102.9776,4.3346],[102.97772,4.33485],[102.97772,4.33487],[102.97818,4.33525],[102.97901,4.33583],[102.98002,4.33591],[102.98065,4.33595],[102.98132,4.33623],[102.98176,4.33656],[102.98191,4.33673],[102.98195,4.33677],[102.98231,4.33696],[102.98256,4.33696],[102.98285,4.33696],[102.98342,4.33677],[102.98416,4.33639],[102.98451,4.33624],[102.98483,4.33591],[102.98516,4.33557],[102.98569,4.33501],[102.98624,4.33442],[102.9867,4.33423],[102.98727,4.33423],[102.98762,4.33429],[102.98899,4.335],[102.98956,4.33553],[102.98996,4.33519],[102.99038,4.33519],[102.99105,4.33523],[102.99181,4.3353],[102.99269,4.33538],[102.99299,4.3354],[102.99301,4.33529],[102.99301,4.33525],[102.99303,4.3351],[102.99301,4.33485],[102.99309,4.3345],[102.99336,4.33395],[102.99405,4.33349],[102.99475,4.33316],[102.99521,4.33284],[102.99588,4.33249],[102.99675,4.33204],[102.99735,4.33181],[102.99796,4.3315],[102.99864,4.33118],[102.9992,4.33102],[102.99967,4.33116],[103.00013,4.33144],[103.0004,4.33171],[103.00042,4.33171],[103.00091,4.33181],[103.00156,4.33166],[103.00219,4.33131],[103.00267,4.33093],[103.00316,4.33047],[103.00366,4.33022],[103.00423,4.33015],[103.00475,4.3302],[103.00551,4.33055],[103.00589,4.33059],[103.00635,4.33059],[103.00673,4.33057],[103.0074,4.3304],[103.00791,4.33017],[103.00856,4.32994],[103.00908,4.32983],[103.00967,4.32983],[103.00999,4.32988],[103.01026,4.33008],[103.01053,4.3304],[103.01081,4.3308],[103.01108,4.33126],[103.01123,4.33157],[103.01142,4.33199],[103.01157,4.33232],[103.01192,4.33268],[103.01224,4.33287],[103.0127,4.33303],[103.01319,4.33306],[103.01358,4.33299],[103.01428,4.33284],[103.01464,4.33295],[103.01504,4.33314],[103.01543,4.33326],[103.0159,4.33345],[103.0164,4.33358],[103.01678,4.33378],[103.01678,4.33381],[103.01678,4.33387],[103.0168,4.33418],[103.01678,4.33462],[103.01678,4.33504],[103.01678,4.33552],[103.01683,4.33602],[103.01697,4.33636],[103.01701,4.33686],[103.01685,4.33739],[103.0167,4.3377],[103.01634,4.33808],[103.01599,4.33847],[103.01559,4.33887],[103.01523,4.33929],[103.01498,4.33961],[103.01469,4.33998],[103.01426,4.34019],[103.01374,4.34024],[103.01323,4.34026],[103.0126,4.34028],[103.01197,4.34026],[103.01162,4.34028],[103.01117,4.34036],[103.01078,4.34051],[103.01071,4.34076],[103.01071,4.34095],[103.0105,4.34177],[103.01034,4.342],[103.01029,4.3421],[103.01025,4.34216],[103.00979,4.34286],[103.00935,4.34321],[103.00903,4.34348],[103.00884,4.34355],[103.00838,4.34355],[103.00784,4.34349],[103.00765,4.34361],[103.00748,4.34388],[103.00735,4.34457],[103.00767,4.34661],[103.00771,4.34943],[103.00778,4.34975],[103.0078,4.34983],[103.00782,4.34991],[103.00784,4.34998],[103.00786,4.35002],[103.00793,4.35033],[103.00795,4.35041],[103.00818,4.35094],[103.00862,4.35155],[103.00877,4.35177],[103.00902,4.35232],[103.00911,4.35307],[103.00902,4.3538],[103.00904,4.35441],[103.00928,4.35502],[103.00942,4.35542],[103.00947,4.35632],[103.00944,4.35671],[103.0089,4.35697],[103.00846,4.35732],[103.00827,4.35764],[103.00758,4.35858],[103.00747,4.35889],[103.00739,4.35982],[103.00758,4.36036],[103.00766,4.36049],[103.00829,4.36178],[103.00855,4.36237],[103.00865,4.36256],[103.00876,4.36308],[103.00872,4.36339],[103.00851,4.36364],[103.00781,4.36453],[103.00765,4.36478],[103.00762,4.36572],[103.00754,4.36599],[103.00714,4.36635],[103.00679,4.3667],[103.00657,4.36721],[103.00655,4.3676],[103.00681,4.36808],[103.00695,4.36832],[103.00706,4.36882],[103.00715,4.36919],[103.00748,4.36972],[103.00765,4.37035],[103.00761,4.37066],[103.00757,4.37114],[103.00795,4.37221],[103.00814,4.37332],[103.0082,4.37355],[103.00707,4.3746],[103.00667,4.37497],[103.00644,4.37516],[103.00606,4.37577],[103.00599,4.37625],[103.00602,4.37642],[103.00614,4.37692],[103.00678,4.37807],[103.0069,4.37828],[103.00711,4.37866],[103.00741,4.37981],[103.00789,4.38146],[103.00812,4.38178],[103.00814,4.3818],[103.00871,4.38224],[103.00909,4.38269],[103.00911,4.38269],[103.0092,4.3828],[103.00936,4.38293],[103.00937,4.38295],[103.00964,4.38324],[103.00977,4.38353],[103.01065,4.38496],[103.01067,4.38498],[103.01141,4.38552],[103.01204,4.38596],[103.01282,4.38625],[103.01322,4.38659],[103.01366,4.38679],[103.01404,4.38667],[103.01462,4.38614],[103.01507,4.38596],[103.01557,4.38591],[103.01624,4.38614],[103.01727,4.38669],[103.01813,4.38733],[103.01814,4.38735],[103.01847,4.38771],[103.01868,4.38817],[103.01923,4.38936],[103.01936,4.39114],[103.01948,4.3914],[103.01948,4.39142],[103.01986,4.39171],[103.02064,4.39248],[103.02117,4.39324],[103.02119,4.39326],[103.02121,4.39328],[103.02146,4.39349],[103.02256,4.39363],[103.02357,4.39386],[103.02428,4.39411],[103.02466,4.39443],[103.02468,4.39445],[103.02559,4.39572],[103.02636,4.39712],[103.02659,4.3974],[103.0266,4.39744],[103.02704,4.39763],[103.0276,4.39784],[103.02782,4.39817],[103.02792,4.39859],[103.02811,4.39951],[103.02813,4.40054],[103.02809,4.40102],[103.02801,4.40133],[103.02801,4.40137],[103.02782,4.40164],[103.02757,4.40183],[103.02744,4.40192],[103.0271,4.40219],[103.02704,4.40234],[103.02713,4.40255],[103.02772,4.40309],[103.0283,4.40363],[103.02833,4.40367],[103.02856,4.40405],[103.02866,4.40418],[103.02885,4.40478],[103.02894,4.40527],[103.02887,4.40571],[103.02852,4.40619],[103.02808,4.40644],[103.02789,4.40657],[103.02778,4.40688],[103.02778,4.40793],[103.02778,4.40799],[103.02774,4.40851],[103.02772,4.40855],[103.02751,4.40858],[103.02701,4.40862],[103.02648,4.40851],[103.02574,4.40835],[103.02501,4.40841],[103.02436,4.4086],[103.02371,4.40877],[103.02328,4.40893],[103.0231,4.40887],[103.02301,4.40877],[103.02225,4.40799],[103.022,4.40774],[103.02085,4.40703],[103.02076,4.40699],[103.02034,4.40687],[103.02007,4.40689],[103.01977,4.40722],[103.01946,4.40743],[103.01887,4.40779],[103.01795,4.40877],[103.01757,4.40917],[103.01685,4.40982],[103.01668,4.40993],[103.01643,4.41007],[103.01574,4.41028],[103.01536,4.41034],[103.01486,4.41037],[103.01458,4.41051],[103.01416,4.41116],[103.01385,4.4119],[103.01341,4.41255],[103.0129,4.41292],[103.01253,4.41319],[103.01209,4.41397],[103.01158,4.4147],[103.01087,4.41564],[103.01068,4.41621],[103.01066,4.41669],[103.01068,4.41715],[103.01066,4.4178],[103.01068,4.41837],[103.01077,4.4191],[103.01083,4.41985],[103.01091,4.42056],[103.01106,4.42123],[103.01106,4.42176],[103.01087,4.42224],[103.01064,4.4227],[103.0105,4.42301],[103.01069,4.42329],[103.01071,4.42333],[103.01123,4.42352],[103.01157,4.42373],[103.01157,4.42375],[103.01193,4.42414],[103.01231,4.42458],[103.01249,4.42509],[103.01237,4.42573],[103.01231,4.42632],[103.01233,4.42678],[103.01218,4.4273],[103.01195,4.42787],[103.01193,4.42819],[103.0121,4.42867],[103.01225,4.42954],[103.01235,4.43022],[103.01235,4.43032],[103.0125,4.43128],[103.01244,4.43178],[103.01265,4.43246],[103.0129,4.43296],[103.01316,4.43333],[103.01326,4.43367],[103.0132,4.43402],[103.01318,4.43459],[103.01307,4.43505],[103.01272,4.43537],[103.0123,4.43562],[103.01187,4.43589],[103.01143,4.43625],[103.01091,4.43671],[103.01068,4.43702],[103.01057,4.43717],[103.01017,4.43784],[103.00998,4.43828],[103.00975,4.43903],[103.00967,4.43968],[103.0094,4.4401],[103.00915,4.44035],[103.00898,4.44054],[103.00873,4.44108],[103.00843,4.44159],[103.00818,4.44201],[103.00785,4.44257],[103.00778,4.44282],[103.00762,4.44322],[103.00761,4.44368],[103.00747,4.44402],[103.00707,4.44423],[103.00575,4.44462],[103.00499,4.44494],[103.00453,4.44519],[103.0044,4.44559],[103.00444,4.44659],[103.00442,4.44714],[103.00423,4.44766],[103.00363,4.44798],[103.00361,4.44852],[103.00356,4.44892],[103.00354,4.44915],[103.00321,4.44974],[103.00254,4.45024],[103.00214,4.45055],[103.00178,4.45106],[103.00144,4.45127],[103.00094,4.45135],[102.99982,4.4512],[102.99812,4.45098],[102.99745,4.45081],[102.99707,4.45058],[102.99705,4.45054],[102.99703,4.45054],[102.99696,4.45047],[102.99694,4.45043],[102.99677,4.45026],[102.99631,4.4501],[102.99587,4.45052],[102.99533,4.45123],[102.99489,4.45165],[102.99484,4.45171],[102.99426,4.452],[102.9936,4.45203],[102.99302,4.45215],[102.99251,4.45238],[102.99247,4.45238],[102.99198,4.45263],[102.99142,4.45276],[102.99087,4.45291],[102.99068,4.45314],[102.9907,4.45322],[102.99073,4.4536],[102.99073,4.45387],[102.99073,4.454],[102.99054,4.45444],[102.99012,4.45506],[102.98984,4.45555],[102.98968,4.45595],[102.98963,4.45678],[102.98955,4.4576],[102.9892,4.45806],[102.9888,4.45879],[102.98877,4.45896],[102.98867,4.45944],[102.98895,4.4603],[102.98922,4.46084],[102.98922,4.46086],[102.98932,4.46093],[102.98941,4.46101],[102.98943,4.46101],[102.98943,4.46103],[102.98945,4.46105],[102.98955,4.46128],[102.98974,4.46195],[102.98991,4.4629],[102.98981,4.46359],[102.98958,4.46417],[102.98945,4.46447],[102.98893,4.4644],[102.98811,4.46434],[102.98722,4.46434],[102.98681,4.46453],[102.98662,4.46503],[102.98628,4.46572],[102.98597,4.46656],[102.98574,4.46675],[102.98548,4.467],[102.98452,4.46717],[102.98395,4.46744],[102.98385,4.4682],[102.98347,4.46929],[102.98303,4.46987],[102.98233,4.47017],[102.98189,4.47027],[102.98158,4.47031],[102.98082,4.47052],[102.98006,4.47122],[102.97952,4.47241],[102.97921,4.47346],[102.9791,4.47415],[102.97933,4.47492],[102.97982,4.4757],[102.97977,4.47584],[102.97957,4.47624],[102.97936,4.47641],[102.97921,4.47655],[102.97919,4.47656],[102.97898,4.47681],[102.9787,4.47744],[102.97824,4.47792],[102.97763,4.47855],[102.97713,4.47897],[102.97677,4.4793],[102.97597,4.48003],[102.97507,4.48085],[102.97463,4.48127],[102.97379,4.48161],[102.97266,4.48186],[102.97175,4.48173],[102.97171,4.48171],[102.97114,4.48111],[102.9707,4.48044],[102.97064,4.47995],[102.97108,4.47947],[102.97122,4.47874],[102.97087,4.47792],[102.97038,4.47734],[102.96975,4.47656],[102.96975,4.47617],[102.96981,4.47525],[102.96933,4.4746],[102.9692,4.47441],[102.96918,4.47441],[102.96821,4.47397],[102.96682,4.47309],[102.96533,4.47184],[102.96398,4.47115],[102.96331,4.47171],[102.96243,4.47232],[102.96176,4.47264],[102.96096,4.47276],[102.95983,4.47287],[102.9589,4.473],[102.95886,4.47297],[102.95839,4.47243],[102.95799,4.47172],[102.95762,4.47065],[102.95709,4.47],[102.95707,4.47],[102.95705,4.46996],[102.95686,4.46986],[102.95682,4.46984],[102.95617,4.4695],[102.95606,4.46944],[102.95532,4.469],[102.95551,4.46827],[102.95633,4.46753],[102.95698,4.46672],[102.95683,4.46571],[102.95641,4.46483],[102.95601,4.46398],[102.95557,4.46301],[102.95565,4.46239],[102.95628,4.46196],[102.95675,4.4614],[102.9567,4.46063],[102.95693,4.45977],[102.95744,4.4591],[102.95806,4.45776],[102.95819,4.45686],[102.95817,4.45685],[102.95815,4.45685],[102.95752,4.45637],[102.95741,4.45627],[102.95697,4.45581],[102.95544,4.45478],[102.95543,4.45476],[102.95421,4.45322],[102.95367,4.45261],[102.95308,4.45167],[102.95306,4.45167],[102.95232,4.45169],[102.95226,4.45167],[102.95146,4.4514],[102.9507,4.45136],[102.94974,4.45144],[102.94959,4.45142],[102.94917,4.45138],[102.94854,4.45132],[102.94751,4.45121],[102.94696,4.45086],[102.94643,4.45084],[102.94591,4.45096],[102.94562,4.45109],[102.94534,4.45147],[102.94528,4.45153],[102.94518,4.45166],[102.94497,4.45197],[102.94494,4.45203],[102.94488,4.4521],[102.94467,4.45243],[102.94448,4.45272],[102.94433,4.45327],[102.94452,4.45367],[102.94453,4.45367],[102.94473,4.45383],[102.94532,4.45425],[102.94534,4.45427],[102.94537,4.45438],[102.94551,4.45477],[102.94346,4.45607],[102.94062,4.45802],[102.93802,4.46],[102.93755,4.46037],[102.93716,4.4609],[102.93709,4.46165],[102.93688,4.4624],[102.93676,4.46282],[102.93651,4.46305],[102.93606,4.46337],[102.93583,4.46389],[102.93577,4.4645],[102.93569,4.46485],[102.93525,4.46506],[102.93483,4.4653],[102.9343,4.46563],[102.93384,4.46613],[102.93371,4.46659],[102.93355,4.46695],[102.93315,4.46735],[102.93277,4.46781],[102.93233,4.46823],[102.93168,4.46835],[102.93107,4.46815],[102.93079,4.4679],[102.93035,4.46785],[102.92964,4.46813],[102.92886,4.46813],[102.92827,4.46792],[102.92754,4.4679],[102.92667,4.46819],[102.92579,4.4683],[102.92512,4.46815],[102.92457,4.46784],[102.924,4.4675],[102.92392,4.46746],[102.92312,4.46732],[102.9223,4.4674],[102.92186,4.46742],[102.9211,4.46757],[102.92081,4.46761],[102.91988,4.46749],[102.91932,4.46709],[102.91927,4.46648],[102.91923,4.46646],[102.91868,4.46594],[102.91799,4.46552],[102.91765,4.46531],[102.9173,4.465],[102.91685,4.46462],[102.9165,4.46429],[102.91622,4.46412],[102.91612,4.46421],[102.91614,4.46483],[102.91633,4.4655],[102.91621,4.46609],[102.91595,4.46649],[102.91574,4.46709],[102.91566,4.46774],[102.91524,4.4681],[102.91448,4.4681],[102.91354,4.46791],[102.91303,4.46817],[102.91213,4.46865],[102.9112,4.46842],[102.91053,4.468],[102.91009,4.46794],[102.91005,4.46794],[102.90952,4.46819],[102.90866,4.46844],[102.90771,4.46827],[102.90687,4.46811],[102.9058,4.468],[102.90494,4.46809],[102.90471,4.46811],[102.90446,4.46813],[102.904,4.46809],[102.90353,4.46824],[102.90309,4.46841],[102.90273,4.46836],[102.90271,4.46832],[102.90225,4.46778],[102.9021,4.46724],[102.90196,4.46679],[102.90187,4.46652],[102.9017,4.46633],[102.90137,4.46654],[102.90101,4.46678],[102.90051,4.46711],[102.89952,4.46763],[102.89891,4.46793],[102.89733,4.46877],[102.89572,4.46892],[102.8951,4.46904],[102.89508,4.46908],[102.89466,4.46955],[102.89391,4.47003],[102.89311,4.47001],[102.89284,4.46999],[102.89193,4.46988],[102.89099,4.46932],[102.89097,4.46928],[102.89096,4.46928],[102.89033,4.46855],[102.89019,4.46832],[102.88985,4.46775],[102.88937,4.46723],[102.88861,4.46717],[102.88762,4.46725],[102.88705,4.46719],[102.88668,4.46713],[102.88575,4.46677],[102.88573,4.46677],[102.88522,4.46625],[102.8852,4.46625],[102.88474,4.46573],[102.88472,4.46573],[102.88398,4.46545],[102.88321,4.46518],[102.88247,4.46455],[102.88243,4.46453],[102.88179,4.46397],[102.88159,4.46395],[102.88091,4.46389],[102.88045,4.46458],[102.88024,4.46506],[102.87869,4.46676],[102.87846,4.46701],[102.87822,4.46722],[102.87776,4.4676],[102.87602,4.46908],[102.8756,4.46986],[102.87579,4.47149],[102.87604,4.47241],[102.87609,4.47262],[102.87643,4.47359],[102.87653,4.4739],[102.87662,4.47419],[102.87672,4.47509],[102.87687,4.47647],[102.87706,4.47687],[102.87727,4.47737],[102.87748,4.47813],[102.87759,4.47882],[102.87759,4.47919],[102.87763,4.47966],[102.87776,4.48016],[102.87809,4.48114],[102.87826,4.48189],[102.87822,4.48236],[102.87789,4.48271],[102.87738,4.483],[102.87684,4.48328],[102.87612,4.48345],[102.87585,4.48347],[102.87518,4.48359],[102.8745,4.48389],[102.87385,4.48408],[102.87333,4.48418],[102.87314,4.48427],[102.87307,4.48452],[102.87305,4.48496],[102.87293,4.48533],[102.87257,4.48567],[102.87209,4.48592],[102.87161,4.48623],[102.87104,4.48647],[102.87045,4.48688],[102.87005,4.48722],[102.86953,4.4873],[102.8689,4.48726],[102.86826,4.48712],[102.86766,4.48718],[102.86696,4.48737],[102.8665,4.48754],[102.86604,4.48789],[102.86581,4.48834],[102.86578,4.48844],[102.86551,4.48892],[102.86524,4.48936],[102.86482,4.48949],[102.86419,4.48986],[102.86385,4.49035],[102.86346,4.49102],[102.86306,4.4916],[102.86262,4.4923],[102.86196,4.49257],[102.8615,4.49276],[102.861,4.49299],[102.86066,4.49332],[102.86031,4.49376],[102.85989,4.49418],[102.85951,4.49437],[102.85921,4.49466],[102.85886,4.49502],[102.85844,4.49527],[102.85795,4.49532],[102.85758,4.49532],[102.8573,4.49513],[102.85726,4.49511],[102.85701,4.49483],[102.85667,4.49437],[102.85629,4.49385],[102.85577,4.49318],[102.85549,4.49308],[102.85526,4.49323],[102.85425,4.49388],[102.85371,4.49377],[102.85318,4.49383],[102.85305,4.49394],[102.85314,4.49547],[102.85333,4.49626],[102.85337,4.49685],[102.85321,4.49716],[102.85314,4.49731],[102.85256,4.49777],[102.85127,4.49813],[102.85028,4.49811],[102.84999,4.49813],[102.84963,4.49817],[102.84942,4.4983],[102.84903,4.49884],[102.849,4.49947],[102.84896,4.50004],[102.8489,4.50041],[102.84894,4.50087],[102.84892,4.5011],[102.8485,4.50171],[102.84802,4.50269],[102.848,4.50337],[102.84806,4.50357],[102.8483,4.50382],[102.84874,4.50429],[102.84891,4.50496],[102.84884,4.50552],[102.84891,4.50652],[102.84901,4.50678],[102.84908,4.50703],[102.84908,4.50707],[102.84906,4.50732],[102.84874,4.50757],[102.84832,4.50797],[102.84805,4.50822],[102.84788,4.50845],[102.84784,4.50879],[102.84792,4.50916],[102.84853,4.51006],[102.84887,4.51067],[102.84889,4.51138],[102.84889,4.51222],[102.84904,4.51366],[102.84925,4.51427],[102.84969,4.51517],[102.85005,4.51605],[102.85014,4.51659],[102.85012,4.51781],[102.85008,4.51906],[102.85,4.51959],[102.84905,4.51982],[102.84833,4.52017],[102.84813,4.52034],[102.848,4.52047],[102.84804,4.52066],[102.84827,4.52097],[102.84838,4.52126],[102.84827,4.52185],[102.84828,4.52258],[102.84838,4.52286],[102.84888,4.52348],[102.84891,4.52373],[102.8488,4.52392],[102.84807,4.52432],[102.84731,4.52478],[102.84691,4.52493],[102.84674,4.52499],[102.84607,4.52545],[102.84555,4.52598],[102.84509,4.52688],[102.84466,4.52751],[102.84448,4.52795],[102.84441,4.5287],[102.84429,4.5291],[102.8437,4.52991],[102.84343,4.53033],[102.84326,4.53061],[102.84322,4.53067],[102.84257,4.53117],[102.84232,4.53144],[102.84198,4.5322],[102.84185,4.53239],[102.84072,4.53298],[102.84039,4.53319],[102.84011,4.5336],[102.84003,4.53419],[102.84005,4.53467],[102.84035,4.53511],[102.84051,4.53547],[102.84053,4.53584],[102.84064,4.53651],[102.8406,4.53685],[102.84033,4.53767],[102.8401,4.53802],[102.83987,4.53842],[102.83972,4.53869],[102.83991,4.53903],[102.83991,4.53942],[102.84006,4.53995],[102.84025,4.54037],[102.84056,4.54118],[102.84084,4.54171],[102.84105,4.54242],[102.84111,4.54294],[102.84126,4.54344],[102.8413,4.54426],[102.84139,4.5447],[102.8413,4.54537],[102.84126,4.54575],[102.84141,4.54692],[102.84166,4.5478],[102.84183,4.54842],[102.84198,4.54874],[102.84221,4.54957],[102.84227,4.55018],[102.84278,4.55271],[102.84289,4.55378],[102.84291,4.55397],[102.84291,4.55403],[102.84297,4.55439],[102.84287,4.55464],[102.84272,4.55481],[102.84217,4.55542],[102.8418,4.55583],[102.84176,4.55588],[102.84111,4.55663],[102.84106,4.55678],[102.84117,4.55703],[102.84121,4.55713],[102.84157,4.55793],[102.84172,4.55841],[102.84178,4.55854],[102.84188,4.55874],[102.84189,4.55879],[102.84191,4.55937],[102.8417,4.55967],[102.84155,4.56021],[102.84138,4.56024],[102.84127,4.56035],[102.84097,4.56028],[102.84003,4.56008],[102.83851,4.55968],[102.83703,4.5596],[102.83571,4.56031],[102.83423,4.56089],[102.83265,4.56149],[102.83118,4.56115],[102.82985,4.56091],[102.8282,4.56099],[102.8273,4.56239],[102.82602,4.56346],[102.82448,4.56324],[102.82322,4.56248],[102.82283,4.56226],[102.82242,4.56193],[102.82143,4.56178],[102.82054,4.56134],[102.8197,4.56117],[102.81826,4.56016],[102.817,4.55893],[102.8156,4.55853],[102.81405,4.5584],[102.81257,4.55739],[102.81155,4.55859],[102.81,4.55938],[102.80951,4.56],[102.80834,4.56027],[102.80686,4.55936],[102.80543,4.55901],[102.80383,4.55867],[102.8026,4.55788],[102.80163,4.55804],[102.80068,4.55794],[102.7999,4.55821],[102.79961,4.55865],[102.79774,4.5589],[102.79609,4.55944],[102.79484,4.55852],[102.79464,4.55772],[102.79398,4.55688],[102.7934,4.55518],[102.79248,4.55372],[102.79183,4.55304],[102.79108,4.55253],[102.78932,4.5527],[102.78837,4.55279],[102.78746,4.55291],[102.78576,4.55283],[102.78482,4.55155],[102.7834,4.55075],[102.78213,4.54968],[102.7814,4.54939],[102.78019,4.54948],[102.77877,4.54987],[102.77858,4.5488],[102.77799,4.5488],[102.77764,4.54818],[102.77729,4.54772],[102.77785,4.54601],[102.77785,4.54521],[102.77767,4.54345],[102.77698,4.54266],[102.77666,4.54177],[102.77598,4.54055],[102.77537,4.53889],[102.77398,4.53776],[102.77303,4.53629],[102.77355,4.53456],[102.77318,4.534],[102.77276,4.5323],[102.77305,4.53058],[102.7724,4.52991],[102.77171,4.52994],[102.77121,4.52964],[102.77098,4.52949],[102.76991,4.52817],[102.76935,4.52682],[102.76898,4.52657],[102.76824,4.52533],[102.76703,4.52402],[102.76724,4.52376],[102.76829,4.52236],[102.76944,4.52097],[102.76832,4.52034],[102.76826,4.5198],[102.76691,4.5192],[102.76542,4.51858],[102.76447,4.51828],[102.76318,4.51799],[102.76143,4.51787],[102.75988,4.51825],[102.75893,4.51887],[102.75763,4.51939],[102.75588,4.51982],[102.75452,4.52064],[102.75398,4.52045],[102.75348,4.52061],[102.75204,4.52104],[102.75054,4.52171],[102.74934,4.52274],[102.74943,4.52339],[102.74786,4.52372],[102.74708,4.52495],[102.74655,4.52458],[102.74514,4.52466],[102.74423,4.52622],[102.74345,4.52754],[102.74296,4.52903],[102.74194,4.52923],[102.74096,4.5301],[102.74098,4.53057],[102.74095,4.53109],[102.74027,4.53049],[102.73931,4.53073],[102.73925,4.53162],[102.73877,4.5318],[102.73835,4.53111],[102.73756,4.5311],[102.73719,4.53147],[102.73767,4.532],[102.73713,4.53271],[102.73668,4.53261],[102.73633,4.53299],[102.73481,4.53378],[102.73463,4.53457],[102.73376,4.53444],[102.73319,4.53482],[102.73251,4.53496],[102.73128,4.53432],[102.73014,4.53393],[102.72917,4.53425],[102.72758,4.53343],[102.72648,4.53402],[102.7262,4.5345],[102.72462,4.53405],[102.72364,4.53341],[102.72257,4.53247],[102.72117,4.53143],[102.7213,4.53087],[102.72193,4.53092],[102.72281,4.53044],[102.7239,4.52932],[102.72483,4.52785],[102.72472,4.52673],[102.724,4.52634],[102.72231,4.52651],[102.72188,4.5267],[102.72141,4.52656],[102.72136,4.52545],[102.72141,4.52373],[102.72075,4.52232],[102.71938,4.52137],[102.71799,4.52031],[102.71675,4.51941],[102.71697,4.51862],[102.71738,4.51718],[102.71637,4.51601],[102.7161,4.51478],[102.7165,4.51362],[102.71679,4.51211],[102.71616,4.51164],[102.71484,4.51109],[102.71435,4.51027],[102.71432,4.5094],[102.71458,4.50806],[102.71419,4.50764],[102.71264,4.5072],[102.71223,4.50667],[102.71176,4.50669],[102.71049,4.50564],[102.70989,4.50456],[102.71106,4.50346],[102.71162,4.50243],[102.71144,4.50172],[102.71018,4.50086],[102.70884,4.50108],[102.70726,4.50127],[102.70636,4.50102],[102.70642,4.50054],[102.70697,4.49902],[102.70688,4.49819],[102.7067,4.49735],[102.70641,4.49573],[102.70593,4.49403],[102.705,4.49341],[102.70427,4.49309],[102.7044,4.49208],[102.7045,4.49016],[102.70468,4.4879],[102.70485,4.48565],[102.70493,4.48322],[102.70516,4.48114],[102.7044,4.48043],[102.70279,4.47864],[102.70143,4.47695],[102.69993,4.47527],[102.69966,4.47497],[102.69843,4.47358],[102.69693,4.4719],[102.69543,4.47021],[102.69393,4.46852],[102.69402,4.46793],[102.6944,4.4657],[102.69477,4.46347],[102.69514,4.46117],[102.69562,4.45904],[102.69565,4.45889],[102.69577,4.45676],[102.69625,4.45455],[102.69662,4.45232],[102.69699,4.45009],[102.69774,4.44796],[102.69811,4.44573],[102.69848,4.4435],[102.69985,4.44413],[102.70189,4.44508],[102.70392,4.44601],[102.70596,4.44696],[102.70801,4.44791],[102.70811,4.4474],[102.70876,4.44523],[102.70922,4.44302],[102.70968,4.4408],[102.71014,4.43859],[102.71059,4.43638],[102.709,4.43618],[102.70676,4.43591],[102.70453,4.43563],[102.70229,4.43536],[102.70005,4.43508],[102.69782,4.43481],[102.69558,4.43453],[102.69335,4.43426],[102.69111,4.43398],[102.68887,4.43371],[102.68664,4.43343],[102.6844,4.43316],[102.68217,4.43288],[102.68194,4.43121],[102.68164,4.42899],[102.68164,4.42897],[102.68133,4.42673],[102.68103,4.42449],[102.68072,4.42225],[102.68271,4.42145],[102.6848,4.4206],[102.68689,4.41975],[102.68898,4.4189],[102.68846,4.41815],[102.68786,4.41745],[102.68727,4.41677],[102.68668,4.41608],[102.68608,4.41539],[102.68549,4.4147],[102.68489,4.41401],[102.6843,4.41333],[102.68371,4.41264],[102.68312,4.41196],[102.68253,4.41127],[102.68194,4.41059],[102.68263,4.41024],[102.68203,4.40956],[102.68143,4.40888],[102.68083,4.4082],[102.68023,4.40752],[102.67963,4.40684],[102.67902,4.40616],[102.67842,4.40548],[102.67829,4.40406],[102.67787,4.40372],[102.67754,4.40307],[102.67792,4.40212],[102.67789,4.40091],[102.67788,4.40091],[102.67696,4.40138],[102.67495,4.40239],[102.67294,4.40341],[102.67092,4.40443],[102.67077,4.40622],[102.67058,4.40847],[102.67038,4.41072],[102.67018,4.41297],[102.66999,4.41523],[102.66979,4.41748],[102.67032,4.41869],[102.6711,4.42081],[102.67112,4.42328],[102.66964,4.42549],[102.66778,4.42681],[102.66594,4.42812],[102.66411,4.42942],[102.66235,4.42775],[102.66203,4.42675],[102.66135,4.4246],[102.66014,4.42392],[102.65915,4.42234],[102.65738,4.42059],[102.65749,4.4181],[102.65833,4.41721],[102.6592,4.4163],[102.66034,4.4157],[102.6611,4.41355],[102.66153,4.41292],[102.66279,4.41105],[102.66287,4.41017],[102.66306,4.40792],[102.66326,4.40566],[102.66346,4.40341],[102.66365,4.40116],[102.66385,4.39891],[102.66243,4.39791],[102.66059,4.39662],[102.65874,4.39532],[102.65986,4.39463],[102.66179,4.39346],[102.66372,4.39229],[102.665,4.39193],[102.66718,4.39133],[102.66853,4.39137],[102.67078,4.39144],[102.67303,4.3915],[102.67528,4.39157],[102.67746,4.39075],[102.67957,4.38996],[102.68168,4.38917],[102.68379,4.38837],[102.6859,4.38758],[102.68801,4.38679],[102.68777,4.38618],[102.68694,4.38408],[102.6861,4.38198],[102.68527,4.37988],[102.68443,4.37778],[102.6836,4.37569],[102.68276,4.37359],[102.68193,4.37149],[102.68109,4.36939],[102.68029,4.36938],[102.67803,4.36942],[102.67578,4.36946],[102.67353,4.3695],[102.67319,4.36869],[102.67231,4.36661],[102.67142,4.36453],[102.67054,4.36245],[102.66966,4.36036],[102.66878,4.35828]]]},"properties":{"FID":0,"fid_1":1,"Name":"Taman Harimau Diraja Al-Sultan Abdullah","Phase":"Phase 1","Area_ha":93016.1725587,"Perimeter":184828.263447,"Name_EN":"Al-Sultan Abdullah Royal Tiger Reserve","source_layer":"ASARTR"}},{"type":"Feature","id":1,"geometry":{"type":"Polygon","coordinates":[[[102.65694,4.25539],[102.65672,4.25359],[102.6545,4.25298],[102.65189,4.25226],[102.64932,4.25385],[102.64772,4.2541],[102.64611,4.25436],[102.64554,4.25446],[102.64426,4.25706],[102.64353,4.25955],[102.64279,4.26144],[102.64189,4.2628],[102.64181,4.26289],[102.64179,4.26293],[102.64097,4.2633],[102.64025,4.26289],[102.63981,4.26264],[102.63914,4.26178],[102.63836,4.2605],[102.63804,4.26013],[102.63642,4.25825],[102.63579,4.25781],[102.63541,4.25561],[102.63477,4.25391],[102.63461,4.25373],[102.63404,4.2531],[102.63345,4.25268],[102.63317,4.25275],[102.63311,4.25272],[102.63237,4.25235],[102.63198,4.25224],[102.63113,4.25216],[102.63082,4.25202],[102.63054,4.25172],[102.6304,4.25149],[102.63042,4.2513],[102.63042,4.25116],[102.63037,4.25057],[102.63029,4.25001],[102.63042,4.24959],[102.6305,4.24932],[102.63043,4.24902],[102.63016,4.24869],[102.63003,4.24848],[102.63003,4.24808],[102.63024,4.24722],[102.63029,4.24659],[102.63039,4.24615],[102.63037,4.24609],[102.63035,4.24603],[102.63011,4.2457],[102.62984,4.24547],[102.6295,4.24538],[102.62862,4.24532],[102.62829,4.24513],[102.62826,4.24505],[102.62812,4.24484],[102.62812,4.2448],[102.62795,4.24407],[102.62788,4.24291],[102.6279,4.24229],[102.6279,4.24203],[102.62782,4.24195],[102.62775,4.24185],[102.62742,4.24164],[102.62702,4.24151],[102.62658,4.24141],[102.62635,4.24118],[102.62613,4.24049],[102.62561,4.23909],[102.6254,4.23873],[102.62521,4.23838],[102.6252,4.23819],[102.62537,4.23754],[102.62554,4.23668],[102.62552,4.23626],[102.62541,4.23578],[102.6255,4.23528],[102.6257,4.23503],[102.62577,4.23496],[102.62598,4.23465],[102.62612,4.23417],[102.62617,4.23354],[102.62652,4.23281],[102.62648,4.23224],[102.62621,4.23142],[102.62623,4.23117],[102.62623,4.23105],[102.62616,4.23052],[102.62595,4.22986],[102.62603,4.22921],[102.62666,4.22872],[102.62744,4.22856],[102.62784,4.2286],[102.6286,4.22864],[102.62881,4.22859],[102.62935,4.22836],[102.62984,4.22796],[102.63021,4.22742],[102.63049,4.22719],[102.63026,4.227],[102.62979,4.22654],[102.62975,4.2265],[102.62973,4.22642],[102.62962,4.22602],[102.62973,4.22514],[102.6297,4.22447],[102.6297,4.22407],[102.62989,4.22372],[102.63031,4.22342],[102.63044,4.22325],[102.63067,4.22288],[102.6308,4.22204],[102.63067,4.22152],[102.63037,4.22108],[102.62985,4.22064],[102.62909,4.22041],[102.62861,4.22016],[102.62835,4.21985],[102.62831,4.21982],[102.62818,4.21947],[102.62787,4.21911],[102.62755,4.2189],[102.62671,4.21867],[102.62639,4.21842],[102.62627,4.21813],[102.62627,4.21752],[102.62618,4.21732],[102.62618,4.2173],[102.62637,4.21673],[102.62637,4.2166],[102.62637,4.21648],[102.62616,4.21623],[102.62591,4.21612],[102.62513,4.21612],[102.62475,4.21604],[102.62435,4.21581],[102.62406,4.21548],[102.62385,4.21468],[102.6238,4.21456],[102.62374,4.21439],[102.62349,4.21372],[102.62332,4.21292],[102.62332,4.21284],[102.6233,4.2128],[102.62327,4.21263],[102.62307,4.2123],[102.6225,4.2118],[102.62195,4.21146],[102.62132,4.21115],[102.62085,4.21085],[102.6205,4.2105],[102.62043,4.21037],[102.62031,4.21008],[102.62022,4.20958],[102.62028,4.2091],[102.62043,4.20887],[102.62051,4.20878],[102.62056,4.20868],[102.62123,4.20872],[102.62154,4.20866],[102.62169,4.20849],[102.62188,4.20799],[102.62222,4.20721],[102.62263,4.20639],[102.62306,4.20566],[102.62314,4.20545],[102.62192,4.20468],[102.62166,4.20451],[102.61047,4.19747],[102.61036,4.19739],[102.6108,4.19676],[102.6112,4.1962],[102.61171,4.19532],[102.6121,4.19454],[102.61248,4.19375],[102.6129,4.1928],[102.61219,4.19222],[102.61151,4.19165],[102.61065,4.191],[102.61018,4.19042],[102.60947,4.18992],[102.60869,4.18942],[102.60783,4.18881],[102.60734,4.18841],[102.60686,4.18802],[102.60623,4.18752],[102.60558,4.18699],[102.60547,4.18657],[102.60551,4.18601],[102.60551,4.18553],[102.60551,4.18549],[102.60559,4.18513],[102.60572,4.18484],[102.60572,4.1848],[102.60599,4.18419],[102.60618,4.18377],[102.60668,4.18291],[102.607,4.18236],[102.60717,4.18184],[102.60729,4.1814],[102.60731,4.1809],[102.60712,4.18021],[102.60679,4.17996],[102.60649,4.17981],[102.60599,4.17963],[102.60556,4.17944],[102.60514,4.17925],[102.60479,4.17885],[102.60476,4.17856],[102.60487,4.17776],[102.60516,4.17703],[102.60543,4.17653],[102.60577,4.17596],[102.60611,4.17535],[102.60634,4.175],[102.60659,4.17449],[102.60684,4.17364],[102.60694,4.17311],[102.60698,4.17259],[102.6069,4.17198],[102.60662,4.17146],[102.60608,4.17041],[102.60587,4.1697],[102.60565,4.16897],[102.60546,4.16811],[102.60544,4.16753],[102.60563,4.16681],[102.60592,4.16612],[102.60628,4.16531],[102.60699,4.16418],[102.60747,4.16307],[102.60752,4.16262],[102.60775,4.1625],[102.60838,4.1622],[102.60882,4.16191],[102.60896,4.16181],[102.6092,4.1617],[102.60959,4.1616],[102.61041,4.16159],[102.61128,4.16151],[102.61176,4.16124],[102.61214,4.16069],[102.61222,4.16027],[102.61228,4.15939],[102.61232,4.15858],[102.61249,4.1581],[102.61306,4.15747],[102.61354,4.15686],[102.614,4.15611],[102.61442,4.15541],[102.61474,4.15478],[102.61476,4.15474],[102.6148,4.15468],[102.61507,4.15414],[102.61539,4.1533],[102.6157,4.1525],[102.61591,4.15164],[102.61601,4.15074],[102.61605,4.1502],[102.61618,4.1493],[102.61643,4.14878],[102.61662,4.14848],[102.61725,4.14796],[102.61752,4.14773],[102.61759,4.14766],[102.61821,4.14703],[102.61853,4.14653],[102.61899,4.1458],[102.61945,4.14507],[102.61979,4.14465],[102.62029,4.1441],[102.62082,4.14343],[102.62124,4.14309],[102.62195,4.14263],[102.62233,4.14246],[102.62306,4.14225],[102.62336,4.14209],[102.62372,4.14177],[102.6238,4.14163],[102.62395,4.14131],[102.62401,4.14104],[102.62399,4.14029],[102.62409,4.13955],[102.62426,4.13922],[102.62476,4.13886],[102.62516,4.13869],[102.6256,4.13863],[102.62649,4.13859],[102.62672,4.13856],[102.62745,4.13806],[102.62779,4.13792],[102.6281,4.13793],[102.62855,4.13808],[102.62933,4.13848],[102.62991,4.1385],[102.63036,4.13835],[102.63117,4.13801],[102.63164,4.13787],[102.6318,4.13782],[102.63204,4.13772],[102.63241,4.1373],[102.63256,4.13709],[102.63267,4.13696],[102.63292,4.13671],[102.63359,4.13615],[102.63393,4.13583],[102.63414,4.13533],[102.63424,4.13472],[102.63417,4.13386],[102.63418,4.13347],[102.63436,4.13301],[102.63459,4.13269],[102.63504,4.13236],[102.63594,4.13215],[102.63668,4.13191],[102.63712,4.13175],[102.63741,4.1316],[102.63764,4.13139],[102.638,4.13097],[102.63854,4.13009],[102.63869,4.12967],[102.63886,4.12904],[102.6389,4.12816],[102.63909,4.12754],[102.6394,4.12726],[102.63995,4.12701],[102.64041,4.12693],[102.64106,4.12678],[102.64201,4.12669],[102.64241,4.12672],[102.64258,4.12684],[102.64285,4.12722],[102.64308,4.12797],[102.64315,4.12883],[102.64327,4.12967],[102.64349,4.1304],[102.6437,4.13077],[102.64386,4.13088],[102.64414,4.13104],[102.64448,4.13107],[102.64481,4.13109],[102.64521,4.13102],[102.64538,4.13096],[102.64576,4.13085],[102.64637,4.13056],[102.64641,4.13052],[102.64643,4.13052],[102.64655,4.13043],[102.64714,4.12979],[102.64742,4.1293],[102.64744,4.12922],[102.64746,4.12918],[102.6476,4.1283],[102.64777,4.12742],[102.6479,4.1266],[102.64798,4.12579],[102.64798,4.12576],[102.64798,4.12564],[102.64794,4.12528],[102.64787,4.1244],[102.64787,4.12436],[102.64781,4.12413],[102.64777,4.1239],[102.64747,4.12307],[102.64738,4.12269],[102.64738,4.12179],[102.64753,4.1211],[102.64789,4.12041],[102.64835,4.1199],[102.64902,4.11938],[102.64936,4.11898],[102.64999,4.11821],[102.65053,4.1176],[102.65083,4.11722],[102.65116,4.11676],[102.65139,4.11634],[102.65169,4.11554],[102.65202,4.11475],[102.65202,4.11473],[102.65213,4.11452],[102.6524,4.11372],[102.65259,4.11324],[102.65292,4.11261],[102.65322,4.112],[102.65349,4.11152],[102.6541,4.11094],[102.65426,4.11079],[102.65491,4.1102],[102.65517,4.10987],[102.65531,4.10972],[102.65578,4.10932],[102.65611,4.10884],[102.65622,4.10867],[102.65657,4.10783],[102.65689,4.1072],[102.6572,4.10666],[102.65756,4.10601],[102.65766,4.10584],[102.65779,4.10553],[102.65796,4.10503],[102.65798,4.10478],[102.65814,4.10377],[102.65829,4.10331],[102.65861,4.10277],[102.65884,4.10255],[102.65898,4.10239],[102.65959,4.10176],[102.66028,4.10119],[102.66094,4.10067],[102.66161,4.10019],[102.66236,4.0997],[102.66285,4.09926],[102.6632,4.09897],[102.66371,4.09867],[102.66445,4.09836],[102.66508,4.09805],[102.66539,4.09794],[102.66577,4.09798],[102.66649,4.0985],[102.66686,4.09878],[102.66701,4.09888],[102.6677,4.09919],[102.66855,4.09925],[102.66939,4.09921],[102.67027,4.09906],[102.67109,4.09879],[102.67183,4.09839],[102.67244,4.09793],[102.67298,4.09732],[102.67357,4.09669],[102.67395,4.09642],[102.67397,4.09642],[102.67443,4.09621],[102.67523,4.09606],[102.67563,4.09604],[102.6758,4.09602],[102.67634,4.09592],[102.67672,4.09575],[102.67741,4.09526],[102.67823,4.09487],[102.67886,4.09466],[102.6796,4.09421],[102.68004,4.09392],[102.68044,4.09367],[102.68124,4.09338],[102.682,4.09317],[102.68269,4.09316],[102.68298,4.09298],[102.68326,4.09272],[102.68385,4.09222],[102.68452,4.0918],[102.68525,4.0914],[102.68571,4.09119],[102.68649,4.091],[102.68735,4.09088],[102.68824,4.09087],[102.68906,4.09083],[102.68939,4.09083],[102.69002,4.09029],[102.69017,4.08976],[102.69053,4.08894],[102.69082,4.08809],[102.69103,4.08767],[102.6913,4.08727],[102.69149,4.08712],[102.69219,4.08679],[102.69307,4.08656],[102.69385,4.08643],[102.69469,4.08615],[102.69511,4.08584],[102.69542,4.08542],[102.6958,4.08465],[102.69618,4.084],[102.69649,4.08324],[102.69662,4.08241],[102.69662,4.08172],[102.69647,4.081],[102.69619,4.08052],[102.69596,4.08004],[102.69592,4.07966],[102.69604,4.07935],[102.69628,4.07902],[102.69651,4.07887],[102.6968,4.07878],[102.6973,4.07864],[102.6981,4.07824],[102.69844,4.0779],[102.69865,4.07732],[102.699,4.07686],[102.69913,4.07648],[102.69921,4.07631],[102.69936,4.07597],[102.69957,4.07537],[102.69984,4.07453],[102.70024,4.07373],[102.70062,4.07302],[102.7011,4.07235],[102.7014,4.07204],[102.70211,4.07153],[102.70249,4.07134],[102.70331,4.07101],[102.70377,4.07071],[102.70415,4.0704],[102.70459,4.07017],[102.70476,4.07011],[102.70511,4.06994],[102.70566,4.06962],[102.70638,4.06925],[102.70682,4.06902],[102.70724,4.06878],[102.70768,4.06859],[102.70841,4.06851],[102.70902,4.0684],[102.70965,4.06832],[102.71028,4.06794],[102.71087,4.06756],[102.71161,4.06714],[102.71216,4.06668],[102.71255,4.06626],[102.713,4.06562],[102.71358,4.06518],[102.71396,4.06497],[102.71445,4.06471],[102.71487,4.06444],[102.71539,4.06442],[102.71581,4.06438],[102.71631,4.06412],[102.71663,4.0637],[102.7169,4.06337],[102.71713,4.0631],[102.71732,4.06289],[102.71787,4.06224],[102.71837,4.06163],[102.71898,4.061],[102.71947,4.0605],[102.71965,4.06044],[102.72001,4.06012],[102.72007,4.06008],[102.7203,4.06008],[102.72052,4.06018],[102.72073,4.0606],[102.72073,4.06119],[102.72062,4.06186],[102.72048,4.06246],[102.7205,4.06291],[102.72056,4.06351],[102.72056,4.06357],[102.72065,4.06382],[102.72086,4.06405],[102.72107,4.06456],[102.72117,4.0651],[102.72118,4.06535],[102.72138,4.06573],[102.72164,4.06611],[102.72193,4.06655],[102.72204,4.0668],[102.72229,4.06726],[102.72269,4.06751],[102.72294,4.06757],[102.72351,4.06774],[102.72393,4.06763],[102.72446,4.06753],[102.72488,4.06736],[102.72532,4.06719],[102.72564,4.06734],[102.72616,4.0674],[102.72662,4.06763],[102.72723,4.06804],[102.72772,4.0683],[102.72825,4.06855],[102.72877,4.06878],[102.72909,4.06898],[102.72947,4.06928],[102.72968,4.06942],[102.73012,4.06997],[102.73056,4.07039],[102.73107,4.07068],[102.73186,4.07109],[102.73212,4.07133],[102.73277,4.07193],[102.73342,4.07252],[102.73408,4.07289],[102.73487,4.07331],[102.73521,4.07366],[102.73544,4.07383],[102.73544,4.07385],[102.73546,4.07387],[102.73582,4.07415],[102.7361,4.07456],[102.73656,4.07532],[102.73669,4.07546],[102.737,4.07576],[102.73768,4.07636],[102.73837,4.07686],[102.73898,4.07718],[102.7398,4.07753],[102.74027,4.07774],[102.7406,4.07797],[102.74088,4.07832],[102.74138,4.07906],[102.74172,4.07983],[102.74191,4.08019],[102.74193,4.08021],[102.7425,4.08071],[102.74315,4.08129],[102.74342,4.08167],[102.74353,4.08238],[102.74366,4.08328],[102.74381,4.0837],[102.74381,4.08374],[102.7444,4.08437],[102.74492,4.08483],[102.74566,4.08529],[102.74604,4.08554],[102.74652,4.08613],[102.74665,4.08642],[102.74671,4.08654],[102.74692,4.08721],[102.74716,4.08786],[102.74743,4.08818],[102.74777,4.08836],[102.74829,4.08843],[102.74917,4.08843],[102.74934,4.0884],[102.74962,4.08832],[102.74985,4.08832],[102.7502,4.08842],[102.75044,4.08857],[102.75092,4.08888],[102.75105,4.08907],[102.75107,4.08947],[102.75082,4.09031],[102.7508,4.091],[102.75086,4.09121],[102.75109,4.09142],[102.75172,4.09164],[102.75221,4.09196],[102.75252,4.09202],[102.75286,4.09185],[102.75288,4.09185],[102.75317,4.09133],[102.75336,4.09104],[102.75366,4.09087],[102.75408,4.09082],[102.75441,4.09091],[102.75473,4.0911],[102.75528,4.09145],[102.75547,4.0916],[102.75593,4.09199],[102.75622,4.09218],[102.75667,4.09245],[102.75723,4.0925],[102.75801,4.09262],[102.75881,4.09293],[102.75917,4.09304],[102.75965,4.09329],[102.75999,4.0936],[102.7605,4.09433],[102.76102,4.09505],[102.76119,4.09555],[102.76142,4.0958],[102.76172,4.09649],[102.76235,4.09709],[102.76256,4.09781],[102.76283,4.0982],[102.76313,4.09837],[102.76397,4.09858],[102.76466,4.09874],[102.76494,4.09902],[102.76521,4.09954],[102.76532,4.10017],[102.7654,4.10054],[102.76557,4.10109],[102.76559,4.10199],[102.76566,4.10247],[102.76578,4.10312],[102.7661,4.1037],[102.76646,4.10442],[102.76692,4.10496],[102.76764,4.10538],[102.76827,4.10565],[102.76896,4.10573],[102.76962,4.10573],[102.77016,4.10563],[102.77062,4.10564],[102.77126,4.10564],[102.77222,4.10558],[102.77262,4.10592],[102.77283,4.10635],[102.77294,4.10671],[102.77294,4.10734],[102.77275,4.10824],[102.77261,4.10874],[102.7724,4.10939],[102.77202,4.10989],[102.77153,4.11048],[102.77124,4.11098],[102.77101,4.11165],[102.77082,4.11241],[102.77078,4.11299],[102.77085,4.11362],[102.77104,4.11435],[102.77097,4.11469],[102.77112,4.11511],[102.77131,4.11536],[102.77184,4.11596],[102.77209,4.11617],[102.77274,4.1164],[102.77314,4.11663],[102.77367,4.11711],[102.7744,4.11742],[102.77472,4.11751],[102.77554,4.1179],[102.7763,4.11834],[102.77699,4.11889],[102.77773,4.11951],[102.77842,4.11995],[102.77922,4.12031],[102.77973,4.12062],[102.78017,4.12085],[102.78088,4.12116],[102.78097,4.12119],[102.78078,4.12186],[102.78032,4.12236],[102.77998,4.12292],[102.77969,4.12376],[102.77929,4.12441],[102.77883,4.12517],[102.77856,4.12538],[102.77822,4.1255],[102.77788,4.12567],[102.77711,4.12615],[102.77683,4.12644],[102.77677,4.12653],[102.77662,4.12684],[102.7766,4.12707],[102.77663,4.12714],[102.77688,4.12774],[102.77726,4.12854],[102.77768,4.12931],[102.7781,4.13008],[102.77859,4.13082],[102.77859,4.13084],[102.77863,4.13111],[102.77856,4.13149],[102.77825,4.13233],[102.77804,4.13318],[102.778,4.13369],[102.77821,4.13394],[102.77886,4.13433],[102.77952,4.13473],[102.78029,4.13523],[102.78071,4.13546],[102.78078,4.1355],[102.78151,4.13584],[102.78177,4.13605],[102.78177,4.13607],[102.782,4.13674],[102.78204,4.13739],[102.78208,4.13822],[102.78213,4.13864],[102.7824,4.13917],[102.78253,4.13935],[102.78286,4.13973],[102.78316,4.14013],[102.78366,4.14082],[102.784,4.14128],[102.78417,4.14199],[102.78432,4.14251],[102.78436,4.14262],[102.78438,4.14274],[102.7844,4.14283],[102.78443,4.14354],[102.78443,4.1444],[102.78441,4.14517],[102.78434,4.14578],[102.78432,4.14664],[102.78433,4.14751],[102.78439,4.14775],[102.78458,4.14797],[102.7846,4.148],[102.78462,4.14808],[102.78494,4.1486],[102.78511,4.14875],[102.78513,4.14877],[102.78515,4.14881],[102.78565,4.14933],[102.78601,4.14946],[102.78633,4.14942],[102.78662,4.14919],[102.78698,4.14894],[102.7871,4.14893],[102.78763,4.14885],[102.78818,4.14883],[102.78902,4.14885],[102.78956,4.14891],[102.78969,4.14901],[102.78996,4.14941],[102.79026,4.14983],[102.7903,4.14987],[102.79043,4.15014],[102.79064,4.15052],[102.7907,4.15088],[102.79062,4.1514],[102.79009,4.15211],[102.78982,4.15234],[102.78908,4.15272],[102.78869,4.15333],[102.78835,4.15362],[102.78789,4.1539],[102.78738,4.15459],[102.78711,4.15505],[102.7869,4.15522],[102.78646,4.15538],[102.78566,4.15578],[102.78532,4.15605],[102.78512,4.15639],[102.7851,4.15683],[102.78514,4.15697],[102.78526,4.15748],[102.78531,4.15771],[102.78564,4.15852],[102.7856,4.1594],[102.78571,4.16005],[102.78596,4.16047],[102.78617,4.16064],[102.78626,4.1607],[102.78684,4.16097],[102.78708,4.16105],[102.78796,4.16114],[102.7888,4.16124],[102.78893,4.16135],[102.7892,4.16179],[102.78945,4.16204],[102.78975,4.1622],[102.79009,4.16235],[102.79061,4.16285],[102.7911,4.16356],[102.79139,4.16421],[102.79167,4.16498],[102.79185,4.16526],[102.79198,4.16547],[102.79209,4.16609],[102.79203,4.16699],[102.79196,4.1676],[102.79203,4.16794],[102.79238,4.16856],[102.7926,4.16892],[102.79289,4.16925],[102.79333,4.1694],[102.79361,4.16954],[102.79379,4.16975],[102.79396,4.17003],[102.79426,4.17026],[102.79489,4.17057],[102.79558,4.17065],[102.796,4.17072],[102.79634,4.17069],[102.7968,4.17057],[102.79716,4.17059],[102.79754,4.17084],[102.79779,4.17117],[102.79794,4.17159],[102.79802,4.17249],[102.79813,4.17295],[102.79847,4.17352],[102.79874,4.17375],[102.79952,4.17419],[102.79982,4.17446],[102.80026,4.17521],[102.80062,4.17601],[102.80123,4.17711],[102.8015,4.17745],[102.8019,4.17766],[102.80251,4.17801],[102.80299,4.17841],[102.80316,4.17874],[102.80337,4.17937],[102.8034,4.18012],[102.80367,4.18025],[102.80396,4.18012],[102.80443,4.17979],[102.80499,4.17941],[102.8056,4.17926],[102.80611,4.17918],[102.80668,4.17907],[102.80712,4.17891],[102.80764,4.1787],[102.80785,4.17859],[102.8081,4.17844],[102.80878,4.17796],[102.80917,4.17765],[102.80993,4.17631],[102.81016,4.17559],[102.81033,4.17344],[102.81054,4.17248],[102.81173,4.17036],[102.81226,4.16896],[102.81249,4.16827],[102.81291,4.16705],[102.81316,4.16615],[102.81309,4.165],[102.81301,4.16452],[102.81288,4.16414],[102.81278,4.16385],[102.8125,4.16333],[102.81229,4.16282],[102.81168,4.16186],[102.81149,4.16127],[102.81147,4.16079],[102.81161,4.15996],[102.81163,4.15927],[102.8118,4.15851],[102.81199,4.1578],[102.81209,4.15734],[102.81232,4.1565],[102.81264,4.15554],[102.81281,4.15503],[102.81299,4.15462],[102.81322,4.15386],[102.81341,4.15307],[102.81364,4.15233],[102.81373,4.15198],[102.81387,4.15116],[102.81914,4.15879],[102.8235,4.16509],[102.82872,4.17264],[102.83022,4.17482],[102.83812,4.18626],[102.84103,4.19046],[102.84218,4.19211],[102.84827,4.2009],[102.84829,4.20098],[102.84831,4.20098],[102.84911,4.20213],[102.84983,4.20318],[102.85465,4.21016],[102.85613,4.2123],[102.85832,4.21546],[102.86567,4.22608],[102.87917,4.2456],[102.87917,4.24562],[102.88077,4.24792],[102.88317,4.25139],[102.88866,4.25932],[102.88883,4.25957],[102.88764,4.26003],[102.88383,4.25735],[102.88163,4.25549],[102.87877,4.25296],[102.87671,4.25168],[102.87474,4.25031],[102.87298,4.24902],[102.8719,4.24791],[102.87044,4.24785],[102.86625,4.25056],[102.86457,4.25086],[102.86274,4.25093],[102.85711,4.25472],[102.85197,4.257],[102.84697,4.26087],[102.8444,4.26295],[102.84161,4.26586],[102.83852,4.26946],[102.83703,4.27046],[102.83509,4.27144],[102.83401,4.27209],[102.83566,4.27593],[102.83562,4.27725],[102.8365,4.28035],[102.83464,4.28152],[102.83241,4.28293],[102.83123,4.28393],[102.83038,4.2851],[102.8294,4.28681],[102.82674,4.28683],[102.82448,4.28623],[102.82259,4.28572],[102.81945,4.2852],[102.8177,4.28503],[102.81661,4.28587],[102.81394,4.28737],[102.81464,4.28992],[102.81437,4.29259],[102.81399,4.29259],[102.81186,4.29207],[102.80937,4.2915],[102.80792,4.29141],[102.80571,4.29104],[102.80204,4.28843],[102.8011,4.28803],[102.79999,4.28787],[102.79882,4.28796],[102.79835,4.28776],[102.79668,4.28653],[102.7956,4.28552],[102.79136,4.2801],[102.79076,4.27965],[102.78917,4.27915],[102.78877,4.27882],[102.78461,4.27363],[102.78191,4.2699],[102.77862,4.26599],[102.77545,4.2624],[102.77535,4.26045],[102.7752,4.25972],[102.77139,4.25888],[102.76741,4.26],[102.76601,4.26001],[102.76534,4.25976],[102.76376,4.25945],[102.76266,4.26025],[102.76151,4.26077],[102.76008,4.26121],[102.7588,4.25944],[102.75776,4.25781],[102.75649,4.25473],[102.75457,4.25137],[102.75455,4.24848],[102.75443,4.24589],[102.75392,4.24548],[102.75337,4.24515],[102.75122,4.24507],[102.74926,4.24397],[102.74752,4.24282],[102.74655,4.24276],[102.74544,4.24292],[102.74501,4.24271],[102.74463,4.24238],[102.74425,4.24111],[102.74391,4.23937],[102.74328,4.23861],[102.7422,4.23859],[102.74066,4.23913],[102.73884,4.23914],[102.73839,4.23899],[102.73632,4.23801],[102.7329,4.23643],[102.72814,4.23668],[102.72501,4.24006],[102.72453,4.24034],[102.72272,4.24143],[102.72176,4.24336],[102.72095,4.24524],[102.72063,4.24942],[102.72005,4.24992],[102.71752,4.25273],[102.71602,4.25718],[102.71437,4.25856],[102.71311,4.25958],[102.71252,4.26045],[102.7111,4.26226],[102.71019,4.26264],[102.7097,4.2626],[102.70877,4.26229],[102.70795,4.26227],[102.70589,4.26337],[102.7011,4.26359],[102.69302,4.25941],[102.6919,4.2588],[102.69064,4.25881],[102.68919,4.25895],[102.68832,4.2587],[102.6874,4.25828],[102.68576,4.25722],[102.68296,4.25536],[102.68005,4.25505],[102.67964,4.25491],[102.67629,4.25301],[102.67358,4.25298],[102.67357,4.25172],[102.67093,4.24998],[102.67056,4.24996],[102.66628,4.25194],[102.66613,4.25398],[102.66609,4.25574],[102.6645,4.25668],[102.66251,4.25451],[102.66221,4.25448],[102.66033,4.25338],[102.65981,4.25335],[102.6594,4.25362],[102.65694,4.25539]]]},"properties":{"FID":1,"fid_1":2,"Name":"Kawasan Cadangan Taman Harimau Diraja Al-Sultan Abdullah","Phase":"Phase 2 (Dec 2026)","Area_ha":41444.8166299,"Perimeter":111826.553491,"Name_EN":"Al-Sultan Abdullah Royal Tiger Reserve - Phase 2","source_layer":"ASARTR"}}]}